{"type": "FeatureCollection", "features": [{"type": "Feature", "properties": {"norad_id": 24946, "name": "IRIDIUM 33", "group": "iridium-33-debris", "lat": -61.270405271421964, "lon": 65.95312334414854, "alt_km": 779.9262716817911, "timestamp": "2025-12-02T08:59:33.098912+00:00", "meta": {"OBJECT_NAME": "IRIDIUM 33", "OBJECT_ID": "1997-051C", "EPOCH": "2025-12-02T02:35:04.423776", "MEAN_MOTION": 14.35024333, "ECCENTRICITY": 0.0006025, "INCLINATION": 86.3871, "RA_OF_ASC_NODE": 72.6839, "ARG_OF_PERICENTER": 241.8333, "MEAN_ANOMALY": 118.2255, "EPHEMERIS_TYPE": 0, "CLASSIFICATION_TYPE": "U", "NORAD_CAT_ID": 24946, "ELEMENT_SET_NO": 999, "REV_AT_EPOCH": 47682, "BSTAR": 0.00015072, "MEAN_MOTION_DOT": 4.49e-06, "MEAN_MOTION_DDOT": 0}, "tle": {"line1": "1 24946U 97051C   25336.10769009  .00000449  00000+0  15072-3 0  9992", "line2": "2 24946  86.3871  72.6839 0006025 241.8333 118.2255 14.35024333476821"}}, "geometry": {"type": "Point", "coordinates": [65.95312334414854, -61.270405271421964]}}, {"type": "Feature", "properties": {"norad_id": 33773, "name": "IRIDIUM 33 DEB", "group": "iridium-33-debris", "lat": -50.12856157599716, "lon": 60.66009569262187, "alt_km": 760.2237691706559, "timestamp": "2025-12-02T08:59:33.098957+00:00", "meta": {"OBJECT_NAME": "IRIDIUM 33 DEB", "OBJECT_ID": "1997-051L", "EPOCH": "2025-12-02T04:14:00.458016", "MEAN_MOTION": 14.4321674, "ECCENTRICITY": 0.0011362, "INCLINATION": 86.4014, "RA_OF_ASC_NODE": 65.0649, "ARG_OF_PERICENTER": 179.1254, "MEAN_ANOMALY": 180.9969, "EPHEMERIS_TYPE": 0, "CLASSIFICATION_TYPE": "U", "NORAD_CAT_ID": 33773, "ELEMENT_SET_NO": 999, "REV_AT_EPOCH": 88195, "BSTAR": 0.00040599, "MEAN_MOTION_DOT": 1.385e-05, "MEAN_MOTION_DDOT": 0}, "tle": {"line1": "1 33773U 97051L   25336.17639419  .00001385  00000+0  40599-3 0  9990", "line2": "2 33773  86.4014  65.0649 0011362 179.1254 180.9969 14.43216740881955"}}, "geometry": {"type": "Point", "coordinates": [60.66009569262187, -50.12856157599716]}}, {"type": "Feature", "properties": {"norad_id": 33775, "name": "IRIDIUM 33 DEB", "group": "iridium-33-debris", "lat": 79.63303623611677, "lon": -146.35966769483196, "alt_km": 746.1678049444163, "timestamp": "2025-12-02T08:59:33.098974+00:00", "meta": {"OBJECT_NAME": "IRIDIUM 33 DEB", "OBJECT_ID": "1997-051N", "EPOCH": "2025-12-02T03:42:41.664096", "MEAN_MOTION": 14.41428943, "ECCENTRICITY": 0.0013078, "INCLINATION": 86.3644, "RA_OF_ASC_NODE": 54.0716, "ARG_OF_PERICENTER": 188.4713, "MEAN_ANOMALY": 210.2825, "EPHEMERIS_TYPE": 0, "CLASSIFICATION_TYPE": "U", "NORAD_CAT_ID": 33775, "ELEMENT_SET_NO": 999, "REV_AT_EPOCH": 87988, "BSTAR": 0.00041132, "MEAN_MOTION_DOT": 1.354e-05, "MEAN_MOTION_DDOT": 0}, "tle": {"line1": "1 33775U 97051N   25336.15464889  .00001354  00000+0  41132-3 0  9997", "line2": "2 33775  86.3644  54.0716 0013078 188.4713 210.2825 14.41428943879882"}}, "geometry": {"type": "Point", "coordinates": [-146.35966769483196, 79.63303623611677]}}, {"type": "Feature", "properties": {"norad_id": 33776, "name": "IRIDIUM 33 DEB", "group": "iridium-33-debris", "lat": 86.39758432099165, "lon": 172.60212332038307, "alt_km": 763.8475156625464, "timestamp": "2025-12-02T08:59:33.098988+00:00", "meta": {"OBJECT_NAME": "IRIDIUM 33 DEB", "OBJECT_ID": "1997-051P", "EPOCH": "2025-12-02T01:01:53.566176", "MEAN_MOTION": 14.38200292, "ECCENTRICITY": 0.0013244, "INCLINATION": 86.4034, "RA_OF_ASC_NODE": 85.2674, "ARG_OF_PERICENTER": 227.5906, "MEAN_ANOMALY": 306.0215, "EPHEMERIS_TYPE": 0, "CLASSIFICATION_TYPE": "U", "NORAD_CAT_ID": 33776, "ELEMENT_SET_NO": 999, "REV_AT_EPOCH": 87928, "BSTAR": 0.00037608, "MEAN_MOTION_DOT": 1.162e-05, "MEAN_MOTION_DDOT": 0}, "tle": {"line1": "1 33776U 97051P   25336.04298109  .00001162  00000+0  37608-3 0  9996", "line2": "2 33776  86.4034  85.2674 0013244 227.5906 306.0215 14.38200292879282"}}, "geometry": {"type": "Point", "coordinates": [172.60212332038307, 86.39758432099165]}}, {"type": "Feature", "properties": {"norad_id": 33777, "name": "IRIDIUM 33 DEB", "group": "iridium-33-debris", "lat": -48.111654007428236, "lon": 35.663777525295835, "alt_km": 711.1472588321658, "timestamp": "2025-12-02T08:59:33.099001+00:00", "meta": {"OBJECT_NAME": "IRIDIUM 33 DEB", "OBJECT_ID": "1997-051Q", "EPOCH": "2025-12-02T04:15:48.952224", "MEAN_MOTION": 14.5547946, "ECCENTRICITY": 0.0005214, "INCLINATION": 86.3801, "RA_OF_ASC_NODE": 39.7969, "ARG_OF_PERICENTER": 298.6098, "MEAN_ANOMALY": 61.4585, "EPHEMERIS_TYPE": 0, "CLASSIFICATION_TYPE": "U", "NORAD_CAT_ID": 33777, "ELEMENT_SET_NO": 999, "REV_AT_EPOCH": 88380, "BSTAR": 0.0011304, "MEAN_MOTION_DOT": 4.937e-05, "MEAN_MOTION_DDOT": 0}, "tle": {"line1": "1 33777U 97051Q   25336.17764991  .00004937  00000+0  11304-2 0  9995", "line2": "2 33777  86.3801  39.7969 0005214 298.6098  61.4585 14.55479460883803"}}, "geometry": {"type": "Point", "coordinates": [35.663777525295835, -48.111654007428236]}}, {"type": "Feature", "properties": {"norad_id": 33850, "name": "IRIDIUM 33 DEB", "group": "iridium-33-debris", "lat": 55.14387676557844, "lon": 39.905320597669146, "alt_km": 752.3026253164217, "timestamp": "2025-12-02T08:59:33.099014+00:00", "meta": {"OBJECT_NAME": "IRIDIUM 33 DEB", "OBJECT_ID": "1997-051T", "EPOCH": "2025-12-02T03:59:09.775104", "MEAN_MOTION": 14.42107156, "ECCENTRICITY": 0.0011096, "INCLINATION": 86.3425, "RA_OF_ASC_NODE": 34.7255, "ARG_OF_PERICENTER": 194.4722, "MEAN_ANOMALY": 218.694, "EPHEMERIS_TYPE": 0, "CLASSIFICATION_TYPE": "U", "NORAD_CAT_ID": 33850, "ELEMENT_SET_NO": 999, "REV_AT_EPOCH": 88000, "BSTAR": 0.00051559, "MEAN_MOTION_DOT": 1.715e-05, "MEAN_MOTION_DDOT": 0}, "tle": {"line1": "1 33850U 97051T   25336.16608536  .00001715  00000+0  51559-3 0  9996", "line2": "2 33850  86.3425  34.7255 0011096 194.4722 218.6940 14.42107156880008"}}, "geometry": {"type": "Point", "coordinates": [39.905320597669146, 55.14387676557844]}}, {"type": "Feature", "properties": {"norad_id": 33853, "name": "IRIDIUM 33 DEB", "group": "iridium-33-debris", "lat": -63.84714518810316, "lon": -177.4515446394454, "alt_km": 766.4818319762753, "timestamp": "2025-12-02T08:59:33.099026+00:00", "meta": {"OBJECT_NAME": "IRIDIUM 33 DEB", "OBJECT_ID": "1997-051W", "EPOCH": "2025-12-02T01:14:36.905856", "MEAN_MOTION": 13.98945927, "ECCENTRICITY": 0.0206855, "INCLINATION": 86.0005, "RA_OF_ASC_NODE": 354.4987, "ARG_OF_PERICENTER": 268.8529, "MEAN_ANOMALY": 151.103, "EPHEMERIS_TYPE": 0, "CLASSIFICATION_TYPE": "U", "NORAD_CAT_ID": 33853, "ELEMENT_SET_NO": 999, "REV_AT_EPOCH": 85196, "BSTAR": 0.0024792, "MEAN_MOTION_DOT": 4.313e-05, "MEAN_MOTION_DDOT": 0}, "tle": {"line1": "1 33853U 97051W   25336.05181604  .00004313  00000+0  24792-2 0  9994", "line2": "2 33853  86.0005 354.4987 0206855 268.8529 151.1030 13.98945927851966"}}, "geometry": {"type": "Point", "coordinates": [-177.4515446394454, -63.84714518810316]}}, {"type": "Feature", "properties": {"norad_id": 33860, "name": "IRIDIUM 33 DEB", "group": "iridium-33-debris", "lat": 46.73161099165094, "lon": -152.02588858574154, "alt_km": 667.4468986856955, "timestamp": "2025-12-02T08:59:33.099046+00:00", "meta": {"OBJECT_NAME": "IRIDIUM 33 DEB", "OBJECT_ID": "1997-051AD", "EPOCH": "2025-12-02T03:45:02.627424", "MEAN_MOTION": 14.67136419, "ECCENTRICITY": 0.0008731, "INCLINATION": 86.3852, "RA_OF_ASC_NODE": 31.9214, "ARG_OF_PERICENTER": 32.1798, "MEAN_ANOMALY": 27.9774, "EPHEMERIS_TYPE": 0, "CLASSIFICATION_TYPE": "U", "NORAD_CAT_ID": 33860, "ELEMENT_SET_NO": 999, "REV_AT_EPOCH": 88567, "BSTAR": 0.001456, "MEAN_MOTION_DOT": 8.21e-05, "MEAN_MOTION_DDOT": 0}, "tle": {"line1": "1 33860U 97051AD  25336.15628041  .00008210  00000+0  14560-2 0  9996", "line2": "2 33860  86.3852  31.9214 0008731  32.1798  27.9774 14.67136419885675"}}, "geometry": {"type": "Point", "coordinates": [-152.02588858574154, 46.73161099165094]}}, {"type": "Feature", "properties": {"norad_id": 33862, "name": "IRIDIUM 33 DEB", "group": "iridium-33-debris", "lat": 86.35827949246108, "lon": 141.6109014920668, "alt_km": 619.09610288986, "timestamp": "2025-12-02T08:59:33.099059+00:00", "meta": {"OBJECT_NAME": "IRIDIUM 33 DEB", "OBJECT_ID": "1997-051AF", "EPOCH": "2025-12-02T03:56:54.078720", "MEAN_MOTION": 14.69187749, "ECCENTRICITY": 0.0054043, "INCLINATION": 86.4106, "RA_OF_ASC_NODE": 42.1919, "ARG_OF_PERICENTER": 104.4608, "MEAN_ANOMALY": 315.3783, "EPHEMERIS_TYPE": 0, "CLASSIFICATION_TYPE": "U", "NORAD_CAT_ID": 33862, "ELEMENT_SET_NO": 999, "REV_AT_EPOCH": 88668, "BSTAR": 0.0016056, "MEAN_MOTION_DOT": 9.692e-05, "MEAN_MOTION_DDOT": 0}, "tle": {"line1": "1 33862U 97051AF  25336.16451480  .00009692  00000+0  16056-2 0  9997", "line2": "2 33862  86.4106  42.1919 0054043 104.4608 315.3783 14.69187749886686"}}, "geometry": {"type": "Point", "coordinates": [141.6109014920668, 86.35827949246108]}}, {"type": "Feature", "properties": {"norad_id": 33866, "name": "IRIDIUM 33 DEB", "group": "iridium-33-debris", "lat": -0.8612026552179858, "lon": 97.36469060868133, "alt_km": 889.6086415030841, "timestamp": "2025-12-02T08:59:33.099071+00:00", "meta": {"OBJECT_NAME": "IRIDIUM 33 DEB", "OBJECT_ID": "1997-051AK", "EPOCH": "2025-12-02T02:49:59.253888", "MEAN_MOTION": 14.25211612, "ECCENTRICITY": 0.0113542, "INCLINATION": 86.2997, "RA_OF_ASC_NODE": 97.529, "ARG_OF_PERICENTER": 195.2947, "MEAN_ANOMALY": 287.6732, "EPHEMERIS_TYPE": 0, "CLASSIFICATION_TYPE": "U", "NORAD_CAT_ID": 33866, "ELEMENT_SET_NO": 999, "REV_AT_EPOCH": 86659, "BSTAR": 0.00074119, "MEAN_MOTION_DOT": 1.881e-05, "MEAN_MOTION_DDOT": 0}, "tle": {"line1": "1 33866U 97051AK  25336.11804692  .00001881  00000+0  74119-3 0  9990", "line2": "2 33866  86.2997  97.5290 0113542 195.2947 287.6732 14.25211612866598"}}, "geometry": {"type": "Point", "coordinates": [97.36469060868133, -0.8612026552179858]}}]}